{"type": "FeatureCollection", "features": [ {"type": "Feature", "properties": {"norad_id": 33492, "name": "GOSAT (IBUKI)", "group": "resource", "lat": -31.023790229300037, "lon": -81.79581552076662, "alt_km": 675.2172754912972, "timestamp": "2025-12-20T14:38:01.615167+00:00", "meta": {"OBJECT_NAME": "GOSAT (IBUKI)", "OBJECT_ID": "2009-002A", "EPOCH": "2025-12-20T05:29:32.228736", "MEAN_MOTION": 14.67538898, "ECCENTRICITY": 9.944e-05, "INCLINATION": 98.0771, "RA_OF_ASC_NODE": 102.7281, "ARG_OF_PERICENTER": 101.0598, "MEAN_ANOMALY": 259.0718, "EPHEMERIS_TYPE": 0, "CLASSIFICATION_TYPE": "U", "NORAD_CAT_ID": 33492, "ELEMENT_SET_NO": 999, "REV_AT_EPOCH": 90521, "BSTAR": 0.00011559165, "MEAN_MOTION_DOT": 6.07e-06, "MEAN_MOTION_DDOT": 0}, "tle": {"line1": "1 33492U 09002A   25354.22884524  .00000607  00000+0  11559-3 0  9992", "line2": "2 33492  98.0771 102.7281 0000994 101.0598 259.0718 14.67538898905210"}}, "geometry": {"type": "Point", "coordinates": [-81.79581552076662, -31.023790229300037]}}, {"type": "Feature", "properties": {"norad_id": 35681, "name": "DEIMOS-1", "group": "resource", "lat": 40.81184651274127, "lon": -18.43193133625699, "alt_km": 641.5009259005928, "timestamp": "2025-12-20T14:38:01.615179+00:00", "meta": {"OBJECT_NAME": "DEIMOS-1", "OBJECT_ID": "2009-041A", "EPOCH": "2025-12-20T05:52:00.361632", "MEAN_MOTION": 14.74963387, "ECCENTRICITY": 0.00025947, "INCLINATION": 97.7143, "RA_OF_ASC_NODE": 154.4979, "ARG_OF_PERICENTER": 67.6781, "MEAN_ANOMALY": 292.4704, "EPHEMERIS_TYPE": 0, "CLASSIFICATION_TYPE": "U", "NORAD_CAT_ID": 35681, "ELEMENT_SET_NO": 999, "REV_AT_EPOCH": 88050, "BSTAR": 7.8531896e-05, "MEAN_MOTION_DOT": 4.8e-06, "MEAN_MOTION_DDOT": 0}, "tle": {"line1": "1 35681U 09041A   25354.24444863  .00000480  00000+0  78532-4 0  9991", "line2": "2 35681  97.7143 154.4979 0002594  67.6781 292.4704 14.74963387880501"}}, "geometry": {"type": "Point", "coordinates": [-18.43193133625699, 40.81184651274127]}}, {"type": "Feature", "properties": {"norad_id": 35682, "name": "DUBAISAT-1", "group": "resource", "lat": 62.84780943660834, "lon": 109.300725646583, "alt_km": 645.0220952962136, "timestamp": "2025-12-20T14:38:01.615190+00:00", "meta": {"OBJECT_NAME": "DUBAISAT-1", "OBJECT_ID": "2009-041B", "EPOCH": "2025-12-19T22:03:33.976800", "MEAN_MOTION": 14.74622186, "ECCENTRICITY": 0.000927, "INCLINATION": 97.9798, "RA_OF_ASC_NODE": 124.4935, "ARG_OF_PERICENTER": 288.7349, "MEAN_ANOMALY": 71.2853, "EPHEMERIS_TYPE": 0, "CLASSIFICATION_TYPE": "U", "NORAD_CAT_ID": 35682, "ELEMENT_SET_NO": 999, "REV_AT_EPOCH": 87867, "BSTAR": 0.00014158, "MEAN_MOTION_DOT": 8.94e-06, "MEAN_MOTION_DDOT": 0}, "tle": {"line1": "1 35682U 09041B   25353.91914325  .00000894  00000+0  14158-3 0  9992", "line2": "2 35682  97.9798 124.4935 0009270 288.7349  71.2853 14.74622186878675"}}, "geometry": {"type": "Point", "coordinates": [109.300725646583, 62.84780943660834]}}, {"type": "Feature", "properties": {"norad_id": 35931, "name": "OCEANSAT-2", "group": "resource", "lat": -77.33490277816668, "lon": 34.455793086146365, "alt_km": 905.3641361475884, "timestamp": "2025-12-20T14:38:01.615201+00:00", "meta": {"OBJECT_NAME": "OCEANSAT-2", "OBJECT_ID": "2009-051A", "EPOCH": "2025-12-20T06:26:17.134368", "MEAN_MOTION": 13.99623129, "ECCENTRICITY": 0.00160237, "INCLINATION": 98.2217, "RA_OF_ASC_NODE": 354.105, "ARG_OF_PERICENTER": 25.3303, "MEAN_ANOMALY": 334.8646, "EPHEMERIS_TYPE": 0, "CLASSIFICATION_TYPE": "U", "NORAD_CAT_ID": 35931, "ELEMENT_SET_NO": 999, "REV_AT_EPOCH": 85430, "BSTAR": -6.5559078e-05, "MEAN_MOTION_DOT": -1.33e-06, "MEAN_MOTION_DDOT": 0}, "tle": {"line1": "1 35931U 09051A   25354.26825387 -.00000133  00000+0 -65559-4 0  9998", "line2": "2 35931  98.2217 354.1050 0016023  25.3303 334.8646 13.99623129854307"}}, "geometry": {"type": "Point", "coordinates": [34.455793086146365, -77.33490277816668]}}, {"type": "Feature", "properties": {"norad_id": 35946, "name": "WORLDVIEW-2 (WV-2)", "group": "resource", "lat": 38.75044662472631, "lon": 58.71080858155202, "alt_km": 759.6250579544821, "timestamp": "2025-12-20T14:38:01.615212+00:00", "meta": {"OBJECT_NAME": "WORLDVIEW-2 (WV-2)", "OBJECT_ID": "2009-055A", "EPOCH": "2025-12-20T04:25:49.234368", "MEAN_MOTION": 14.37726999, "ECCENTRICITY": 0.00049347, "INCLINATION": 98.478, "RA_OF_ASC_NODE": 65.167, "ARG_OF_PERICENTER": 52.4511, "MEAN_ANOMALY": 307.7124, "EPHEMERIS_TYPE": 0, "CLASSIFICATION_TYPE": "U", "NORAD_CAT_ID": 35946, "ELEMENT_SET_NO": 999, "REV_AT_EPOCH": 84992, "BSTAR": 5.1871885e-05, "MEAN_MOTION_DOT": 1.12e-06, "MEAN_MOTION_DDOT": 0}, "tle": {"line1": "1 35946U 09055A   25354.18459762  .00000112  00000+0  51872-4 0  9997", "line2": "2 35946  98.4780  65.1670 0004934  52.4511 307.7124 14.37726999849921"}}, "geometry": {"type": "Point", "coordinates": [58.71080858155202, 38.75044662472631]}}, {"type": "Feature", "properties": {"norad_id": 36036, "name": "SMOS", "group": "resource", "lat": 47.30220965800865, "lon": 8.799297667362104, "alt_km": 754.62444669241, "timestamp": "2025-12-20T14:38:01.615223+00:00", "meta": {"OBJECT_NAME": "SMOS", "OBJECT_ID": "2009-059A", "EPOCH": "2025-12-20T02:20:51.634176", "MEAN_MOTION": 14.39747368, "ECCENTRICITY": 0.00010832, "INCLINATION": 98.438, "RA_OF_ASC_NODE": 179.0374, "ARG_OF_PERICENTER": 83.3735, "MEAN_ANOMALY": 276.7577, "EPHEMERIS_TYPE": 0, "CLASSIFICATION_TYPE": "U", "NORAD_CAT_ID": 36036, "ELEMENT_SET_NO": 999, "REV_AT_EPOCH": 84768, "BSTAR": 0.00010328631, "MEAN_MOTION_DOT": 2.8e-06, "MEAN_MOTION_DDOT": 0}, "tle": {"line1": "1 36036U 09059A   25354.09781984  .00000280  00000+0  10329-3 0  9993", "line2": "2 36036  98.4380 179.0374 0001083  83.3735 276.7577 14.39747368847680"}}, "geometry": {"type": "Point", "coordinates": [8.799297667362104, 47.30220965800865]}}, {"type": "Feature", "properties": {"norad_id": 36110, "name": "YAOGAN-7", "group": "resource", "lat": -47.677108511017714, "lon": -114.74427757796893, "alt_km": 634.4018285389766, "timestamp": "2025-12-20T14:38:01.615233+00:00", "meta": {"OBJECT_NAME": "YAOGAN-7", "OBJECT_ID": "2009-069A", "EPOCH": "2025-12-20T03:28:34.501728", "MEAN_MOTION": 14.77742358, "ECCENTRICITY": 0.00233621, "INCLINATION": 98.0296, "RA_OF_ASC_NODE": 235.8752, "ARG_OF_PERICENTER": 256.0159, "MEAN_ANOMALY": 103.8453, "EPHEMERIS_TYPE": 0, "CLASSIFICATION_TYPE": "U", "NORAD_CAT_ID": 36110, "ELEMENT_SET_NO": 999, "REV_AT_EPOCH": 86318, "BSTAR": 6.7749199e-05, "MEAN_MOTION_DOT": 4.34e-06, "MEAN_MOTION_DDOT": 0}, "tle": {"line1": "1 36110U 09069A   25354.14484377  .00000434  00000+0  67749-4 0  9999", "line2": "2 36110  98.0296 235.8752 0023362 256.0159 103.8453 14.77742358863181"}}, "geometry": {"type": "Point", "coordinates": [-114.74427757796893, -47.677108511017714]}}, {"type": "Feature", "properties": {"norad_id": 36605, "name": "TANDEM-X", "group": "resource", "lat": -70.1995389035164, "lon": 21.17065301936573, "alt_km": 516.7388238599342, "timestamp": "2025-12-20T14:38:01.615243+00:00", "meta": {"OBJECT_NAME": "TANDEM-X", "OBJECT_ID": "2010-030A", "EPOCH": "2025-12-19T12:04:27.806304", "MEAN_MOTION": 15.19152689, "ECCENTRICITY": 0.0001806, "INCLINATION": 97.4444, "RA_OF_ASC_NODE": 358.7845, "ARG_OF_PERICENTER": 78.9569, "MEAN_ANOMALY": 281.1868, "EPHEMERIS_TYPE": 0, "CLASSIFICATION_TYPE": "U", "NORAD_CAT_ID": 36605, "ELEMENT_SET_NO": 999, "REV_AT_EPOCH": 85936, "BSTAR": 3.4902e-05, "MEAN_MOTION_DOT": 6.66e-06, "MEAN_MOTION_DDOT": 0}, "tle": {"line1": "1 36605U 10030A   25353.50309961  .00000666  00000+0  34902-4 0  9994", "line2": "2 36605  97.4444 358.7845 0001806  78.9569 281.1868 15.19152689859365"}}, "geometry": {"type": "Point", "coordinates": [21.17065301936573, -70.1995389035164]}}, {"type": "Feature", "properties": {"norad_id": 36795, "name": "CARTOSAT-2B", "group": "resource", "lat": -81.58097180579887, "lon": 155.82124802100083, "alt_km": 648.1598116552232, "timestamp": "2025-12-20T14:38:01.615253+00:00", "meta": {"OBJECT_NAME": "CARTOSAT-2B", "OBJECT_ID": "2010-035A", "EPOCH": "2025-12-20T06:56:05.917632", "MEAN_MOTION": 14.78733483, "ECCENTRICITY": 0.00127996, "INCLINATION": 97.7847, "RA_OF_ASC_NODE": 43.0744, "ARG_OF_PERICENTER": 54.2749, "MEAN_ANOMALY": 305.9651, "EPHEMERIS_TYPE": 0, "CLASSIFICATION_TYPE": "U", "NORAD_CAT_ID": 36795, "ELEMENT_SET_NO": 999, "REV_AT_EPOCH": 83341, "BSTAR": 3.6243966e-05, "MEAN_MOTION_DOT": 2.16e-06, "MEAN_MOTION_DDOT": 0}, "tle": {"line1": "1 36795U 10035A   25354.28895738  .00000216  00000+0  36244-4 0  9999", "line2": "2 36795  97.7847  43.0744 0012799  54.2749 305.9651 14.78733483833411"}}, "geometry": {"type": "Point", "coordinates": [155.82124802100083, -81.58097180579887]}}, {"type": "Feature", "properties": {"norad_id": 36834, "name": "YAOGAN-10", "group": "resource", "lat": 25.766720525049678, "lon": -161.778276200583, "alt_km": 613.6723709952648, "timestamp": "2025-12-20T14:38:01.615264+00:00", "meta": {"OBJECT_NAME": "YAOGAN-10", "OBJECT_ID": "2010-038A", "EPOCH": "2025-12-20T07:43:44.255136", "MEAN_MOTION": 14.84635511, "ECCENTRICITY": 0.00014367, "INCLINATION": 97.9134, "RA_OF_ASC_NODE": 14.0864, "ARG_OF_PERICENTER": 78.4028, "MEAN_ANOMALY": 338.7117, "EPHEMERIS_TYPE": 0, "CLASSIFICATION_TYPE": "U", "NORAD_CAT_ID": 36834, "ELEMENT_SET_NO": 999, "REV_AT_EPOCH": 83066, "BSTAR": 0.00018419069, "MEAN_MOTION_DOT": 1.503e-05, "MEAN_MOTION_DDOT": 0}, "tle": {"line1": "1 36834U 10038A   25354.32203999  .00001503  00000+0  18419-3 0  9996", "line2": "2 36834  97.9134  14.0864 0001436  78.4028 338.7117 14.84635511830666"}}, "geometry": {"type": "Point", "coordinates": [-161.778276200583, 25.766720525049678]}}]}